HELIOS 2A               
1 28492U 04049A   22352.44850990  .00002531  00000+0  24479-3 0  9994
2 28492  98.2576 304.3123 0013503 192.4951 167.5918 14.93703757962586
SPIRALE A               
1 33751U 09008C   22352.35898146  .00000151  00000+0  44223-3 0  9998
2 33751   2.0961  79.7589 5459505 234.4704  61.4117  4.58895370203263
SPIRALE B               
1 33752U 09008D   22352.28287979  .00002062  00000+0  85047-3 0  9999
2 33752   2.2032  18.6365 6836476 346.7780   1.8782  2.83528942130288
SAPPHIRE                
1 39088U 13009C   22352.51156017  .00000140  00000+0  64818-4 0  9996
2 39088  98.4159 183.6080 0012525  89.8712 270.3909 14.34352068513502
